{"type": "FeatureCollection", "features": [{"type": "Feature", "properties": {"norad_id": 24876, "name": "GPS BIIR-2  (PRN 13)", "group": "gps-ops", "lat": 37.5965508579242, "lon": -105.71795490540737, "alt_km": 20111.46771657138, "timestamp": "2025-12-16T21:38:57.433171+00:00", "meta": {"OBJECT_NAME": "GPS BIIR-2  (PRN 13)", "OBJECT_ID": "1997-035A", "EPOCH": "2025-12-15T17:22:46.609248", "MEAN_MOTION": 2.0056369, "ECCENTRICITY": 0.00967808, "INCLINATION": 55.8966, "RA_OF_ASC_NODE": 105.7521, "ARG_OF_PERICENTER": 56.9888, "MEAN_ANOMALY": 303.9092, "EPHEMERIS_TYPE": 0, "CLASSIFICATION_TYPE": "U", "NORAD_CAT_ID": 24876, "ELEMENT_SET_NO": 999, "REV_AT_EPOCH": 20827, "BSTAR": 0, "MEAN_MOTION_DOT": -1.8e-07, "MEAN_MOTION_DDOT": 0}, "tle": {"line1": "1 24876U 97035A   25349.72415057 -.00000018  00000+0  00000+0 0  9993", "line2": "2 24876  55.8966 105.7521 0096780  56.9888 303.9092  2.00563690208279"}}, "geometry": {"type": "Point", "coordinates": [-105.71795490540737, 37.5965508579242]}}, {"type": "Feature", "properties": {"norad_id": 26360, "name": "GPS BIIR-4  (PRN 20)", "group": "gps-ops", "lat": -34.16020674987166, "lon": -124.99520148429545, "alt_km": 20088.240952640244, "timestamp": "2025-12-16T21:38:57.433198+00:00", "meta": {"OBJECT_NAME": "GPS BIIR-4  (PRN 20)", "OBJECT_ID": "2000-025A", "EPOCH": "2025-12-16T02:31:28.682976", "MEAN_MOTION": 2.00567527, "ECCENTRICITY": 0.00388818, "INCLINATION": 55.0472, "RA_OF_ASC_NODE": 26.7017, "ARG_OF_PERICENTER": 242.3164, "MEAN_ANOMALY": 125.7011, "EPHEMERIS_TYPE": 0, "CLASSIFICATION_TYPE": "U", "NORAD_CAT_ID": 26360, "ELEMENT_SET_NO": 999, "REV_AT_EPOCH": 18760, "BSTAR": 0, "MEAN_MOTION_DOT": -8.7e-07, "MEAN_MOTION_DDOT": 0}, "tle": {"line1": "1 26360U 00025A   25350.10519309 -.00000087  00000+0  00000+0 0  9991", "line2": "2 26360  55.0472  26.7017 0038881 242.3164 125.7011  2.00567527187608"}}, "geometry": {"type": "Point", "coordinates": [-124.99520148429545, -34.16020674987166]}}, {"type": "Feature", "properties": {"norad_id": 26407, "name": "GPS BIIR-5  (PRN 22)", "group": "gps-ops", "lat": 47.42463501070086, "lon": -87.66322829844825, "alt_km": 20351.208684690857, "timestamp": "2025-12-16T21:38:57.433214+00:00", "meta": {"OBJECT_NAME": "GPS BIIR-5  (PRN 22)", "OBJECT_ID": "2000-040A", "EPOCH": "2025-12-16T01:22:34.275360", "MEAN_MOTION": 2.00568075, "ECCENTRICITY": 0.01258355, "INCLINATION": 54.89, "RA_OF_ASC_NODE": 222.437, "ARG_OF_PERICENTER": 301.8664, "MEAN_ANOMALY": 231.2239, "EPHEMERIS_TYPE": 0, "CLASSIFICATION_TYPE": "U", "NORAD_CAT_ID": 26407, "ELEMENT_SET_NO": 999, "REV_AT_EPOCH": 18627, "BSTAR": 0, "MEAN_MOTION_DOT": 5.9e-07, "MEAN_MOTION_DDOT": 0}, "tle": {"line1": "1 26407U 00040A   25350.05734115  .00000059  00000+0  00000+0 0  9996", "line2": "2 26407  54.8900 222.4370 0125835 301.8664 231.2239  2.00568075186278"}}, "geometry": {"type": "Point", "coordinates": [-87.66322829844825, 47.42463501070086]}}, {"type": "Feature", "properties": {"norad_id": 27663, "name": "GPS BIIR-8  (PRN 16)", "group": "gps-ops", "lat": -16.1126228225177, "lon": 53.92528389351831, "alt_km": 20514.83721250511, "timestamp": "2025-12-16T21:38:57.433227+00:00", "meta": {"OBJECT_NAME": "GPS BIIR-8  (PRN 16)", "OBJECT_ID": "2003-005A", "EPOCH": "2025-12-15T15:27:32.010336", "MEAN_MOTION": 2.00570814, "ECCENTRICITY": 0.01475727, "INCLINATION": 54.9227, "RA_OF_ASC_NODE": 222.2628, "ARG_OF_PERICENTER": 51.8406, "MEAN_ANOMALY": 318.7887, "EPHEMERIS_TYPE": 0, "CLASSIFICATION_TYPE": "U", "NORAD_CAT_ID": 27663, "ELEMENT_SET_NO": 999, "REV_AT_EPOCH": 16763, "BSTAR": 0, "MEAN_MOTION_DOT": 5.5e-07, "MEAN_MOTION_DDOT": 0}, "tle": {"line1": "1 27663U 03005A   25349.64412049  .00000055  00000+0  00000+0 0  9993", "line2": "2 27663  54.9227 222.2628 0147572  51.8406 318.7887  2.00570814167631"}}, "geometry": {"type": "Point", "coordinates": [53.92528389351831, -16.1126228225177]}}, {"type": "Feature", "properties": {"norad_id": 28190, "name": "GPS BIIR-11 (PRN 19)", "group": "gps-ops", "lat": -2.201570688612803, "lon": -78.50994651349683, "alt_km": 20467.036327906015, "timestamp": "2025-12-16T21:38:57.433240+00:00", "meta": {"OBJECT_NAME": "GPS BIIR-11 (PRN 19)", "OBJECT_ID": "2004-009A", "EPOCH": "2025-12-14T15:49:47.343936", "MEAN_MOTION": 2.00560762, "ECCENTRICITY": 0.01083648, "INCLINATION": 54.9839, "RA_OF_ASC_NODE": 283.1415, "ARG_OF_PERICENTER": 167.6892, "MEAN_ANOMALY": 10.6801, "EPHEMERIS_TYPE": 0, "CLASSIFICATION_TYPE": "U", "NORAD_CAT_ID": 28190, "ELEMENT_SET_NO": 999, "REV_AT_EPOCH": 15924, "BSTAR": 0, "MEAN_MOTION_DOT": -7.9e-07, "MEAN_MOTION_DDOT": 0}, "tle": {"line1": "1 28190U 04009A   25348.65957574 -.00000079  00000+0  00000+0 0  9998", "line2": "2 28190  54.9839 283.1415 0108364 167.6892  10.6801  2.00560762159240"}}, "geometry": {"type": "Point", "coordinates": [-78.50994651349683, -2.201570688612803]}}, {"type": "Feature", "properties": {"norad_id": 28474, "name": "GPS BIIR-13 (PRN 02)", "group": "gps-ops", "lat": 45.11810646273797, "lon": 16.43316648797957, "alt_km": 20327.230269002626, "timestamp": "2025-12-16T21:38:57.433252+00:00", "meta": {"OBJECT_NAME": "GPS BIIR-13 (PRN 02)", "OBJECT_ID": "2004-045A", "EPOCH": "2025-12-15T08:55:34.317408", "MEAN_MOTION": 2.00569721, "ECCENTRICITY": 0.01708177, "INCLINATION": 55.2393, "RA_OF_ASC_NODE": 332.2998, "ARG_OF_PERICENTER": 309.3676, "MEAN_ANOMALY": 83.5283, "EPHEMERIS_TYPE": 0, "CLASSIFICATION_TYPE": "U", "NORAD_CAT_ID": 28474, "ELEMENT_SET_NO": 999, "REV_AT_EPOCH": 15474, "BSTAR": 0, "MEAN_MOTION_DOT": -9.1e-07, "MEAN_MOTION_DDOT": 0}, "tle": {"line1": "1 28474U 04045A   25349.37192497 -.00000091  00000+0  00000+0 0  9992", "line2": "2 28474  55.2393 332.2998 0170817 309.3676  83.5283  2.00569721154740"}}, "geometry": {"type": "Point", "coordinates": [16.43316648797957, 45.11810646273797]}}, {"type": "Feature", "properties": {"norad_id": 28874, "name": "GPS BIIRM-1 (PRN 17)", "group": "gps-ops", "lat": 14.893541828092996, "lon": -68.77112642642413, "alt_km": 20141.66896219613, "timestamp": "2025-12-16T21:38:57.433264+00:00", "meta": {"OBJECT_NAME": "GPS BIIRM-1 (PRN 17)", "OBJECT_ID": "2005-038A", "EPOCH": "2025-12-15T21:22:37.236864", "MEAN_MOTION": 2.00578274, "ECCENTRICITY": 0.01315557, "INCLINATION": 55.0291, "RA_OF_ASC_NODE": 280.574, "ARG_OF_PERICENTER": 293.6034, "MEAN_ANOMALY": 72.8859, "EPHEMERIS_TYPE": 0, "CLASSIFICATION_TYPE": "U", "NORAD_CAT_ID": 28874, "ELEMENT_SET_NO": 999, "REV_AT_EPOCH": 14816, "BSTAR": 0, "MEAN_MOTION_DOT": -6.8e-07, "MEAN_MOTION_DDOT": 0}, "tle": {"line1": "1 28874U 05038A   25349.89070876 -.00000068  00000+0  00000+0 0  9996", "line2": "2 28874  55.0291 280.5740 0131555 293.6034  72.8859  2.00578274148160"}}, "geometry": {"type": "Point", "coordinates": [-68.77112642642413, 14.893541828092996]}}, {"type": "Feature", "properties": {"norad_id": 29486, "name": "GPS BIIRM-2 (PRN 31)", "group": "gps-ops", "lat": -53.749317246283546, "lon": 83.34944788564546, "alt_km": 20383.051245306033, "timestamp": "2025-12-16T21:38:57.433275+00:00", "meta": {"OBJECT_NAME": "GPS BIIRM-2 (PRN 31)", "OBJECT_ID": "2006-042A", "EPOCH": "2025-12-15T18:26:47.569632", "MEAN_MOTION": 2.0055408, "ECCENTRICITY": 0.01073392, "INCLINATION": 54.6945, "RA_OF_ASC_NODE": 158.6205, "ARG_OF_PERICENTER": 52.0304, "MEAN_ANOMALY": 129.1611, "EPHEMERIS_TYPE": 0, "CLASSIFICATION_TYPE": "U", "NORAD_CAT_ID": 29486, "ELEMENT_SET_NO": 999, "REV_AT_EPOCH": 14071, "BSTAR": 0, "MEAN_MOTION_DOT": 9.5e-07, "MEAN_MOTION_DDOT": 0}, "tle": {"line1": "1 29486U 06042A   25349.76860613  .00000095  00000+0  00000+0 0  9993", "line2": "2 29486  54.6945 158.6205 0107339  52.0304 129.1611  2.00554080140716"}}, "geometry": {"type": "Point", "coordinates": [83.34944788564546, -53.749317246283546]}}, {"type": "Feature", "properties": {"norad_id": 29601, "name": "GPS BIIRM-3 (PRN 12)", "group": "gps-ops", "lat": -19.072663958793374, "lon": -152.78315474732506, "alt_km": 20265.468552659822, "timestamp": "2025-12-16T21:38:57.433286+00:00", "meta": {"OBJECT_NAME": "GPS BIIRM-3 (PRN 12)", "OBJECT_ID": "2006-052A", "EPOCH": "2025-12-15T22:30:08.867232", "MEAN_MOTION": 2.00573827, "ECCENTRICITY": 0.00878265, "INCLINATION": 54.9699, "RA_OF_ASC_NODE": 221.2713, "ARG_OF_PERICENTER": 87.4673, "MEAN_ANOMALY": 273.6251, "EPHEMERIS_TYPE": 0, "CLASSIFICATION_TYPE": "U", "NORAD_CAT_ID": 29601, "ELEMENT_SET_NO": 999, "REV_AT_EPOCH": 13973, "BSTAR": 0, "MEAN_MOTION_DOT": 6e-07, "MEAN_MOTION_DDOT": 0}, "tle": {"line1": "1 29601U 06052A   25349.93760263  .00000060  00000+0  00000+0 0  9994", "line2": "2 29601  54.9699 221.2713 0087826  87.4673 273.6251  2.00573827139739"}}, "geometry": {"type": "Point", "coordinates": [-152.78315474732506, -19.072663958793374]}}, {"type": "Feature", "properties": {"norad_id": 32260, "name": "GPS BIIRM-4 (PRN 15)", "group": "gps-ops", "lat": 45.343194371314446, "lon": -139.80144697716287, "alt_km": 19810.301450525953, "timestamp": "2025-12-16T21:38:57.433297+00:00", "meta": {"OBJECT_NAME": "GPS BIIRM-4 (PRN 15)", "OBJECT_ID": "2007-047A", "EPOCH": "2025-12-16T05:50:40.703424", "MEAN_MOTION": 2.00564422, "ECCENTRICITY": 0.01640582, "INCLINATION": 53.9575, "RA_OF_ASC_NODE": 87.6137, "ARG_OF_PERICENTER": 85.2876, "MEAN_ANOMALY": 276.573, "EPHEMERIS_TYPE": 0, "CLASSIFICATION_TYPE": "U", "NORAD_CAT_ID": 32260, "ELEMENT_SET_NO": 999, "REV_AT_EPOCH": 13314, "BSTAR": 0, "MEAN_MOTION_DOT": -5.5e-07, "MEAN_MOTION_DDOT": 0}, "tle": {"line1": "1 32260U 07047A   25350.24352666 -.00000055  00000+0  00000+0 0  9999", "line2": "2 32260  53.9575  87.6137 0164058  85.2876 276.5730  2.00564422133148"}}, "geometry": {"type": "Point", "coordinates": [-139.80144697716287, 45.343194371314446]}}]}